NORAD_CAT_ID,OBJECT_NAME,OBJECT_TYPE,EPOCH,MEAN_MOTION,ECCENTRICITY,INCLINATION,RA_OF_ASC_NODE,ARG_OF_PERICENTER,MEAN_ANOMALY,BSTAR,MEAN_MOTION_DOT,MEAN_MOTION_DDOT,TLE_LINE0,TLE_LINE1,TLE_LINE2,SEMIMAJOR_AXIS,PERIOD,APOGEE,PERIGEE,DECAYED
53260.0,STARLINK-4136,PAYLOAD,2023-11-03 14:29:09,15.0884548,0.000133,53.2169,81.7289,83.2218,276.8926,0.00018437,2.648e-05,0.0,0 STARLINK-4136,1 53260U 22086U   23307.60357738  .00002648  00000-0  18437-3 0  9994,2 53260  53.2169  81.7289 0001330  83.2218 276.8926 15.08845480 71674,6917.864,95.437,540.649,538.809,0.0
53260.0,STARLINK-4136,PAYLOAD,2023-11-03 19:15:18,15.08849788,0.0001336,53.2171,80.8361,77.2977,282.8165,0.0002457,3.626e-05,0.0,0 STARLINK-4136,1 53260U 22086U   23307.80229510  .00003626  00000-0  24570-3 0  9994,2 53260  53.2171  80.8361 0001336  77.2977 282.8165 15.08849788 71520,6917.85,95.437,540.64,538.791,0.0
53260.0,STARLINK-4136,PAYLOAD,2023-11-04 09:33:47,15.08834756,0.0001636,53.217,78.1603,83.9301,276.1878,-0.00010357,-1.936e-05,0.0,0 STARLINK-4136,1 53260U 22086U   23308.39846130 -.00001936  00000-0 -10357-3 0  9994,2 53260  53.2170  78.1603 0001636  83.9301 276.1878 15.08834756 71612,6917.896,95.438,540.893,538.63,0.0
53260.0,STARLINK-4136,PAYLOAD,2023-11-04 14:19:56,15.08838206,0.0001455,53.2167,77.2696,90.2094,269.9065,-2.0842e-05,-6.2e-06,0.0,0 STARLINK-4136,1 53260U 22086U   23308.59718040 -.00000620  00000-0 -20842-4 0  9994,2 53260  53.2167  77.2696 0001455  90.2094 269.9065 15.08838206 71824,6917.886,95.438,540.757,538.744,0.0
53260.0,STARLINK-4136,PAYLOAD,2023-11-04 15:55:19,15.08842082,0.0001394,53.2163,76.9736,91.7034,268.4118,5.1551e-05,5.33e-06,0.0,0 STARLINK-4136,1 53260U 22086U   23308.66341861  .00000533  00000-0  51551-4 0  9997,2 53260  53.2163  76.9736 0001394  91.7034 268.4118 15.08842082 71654,6917.874,95.437,540.703,538.775,0.0
53260.0,STARLINK-4136,PAYLOAD,2023-11-05 14:10:43,15.08848868,0.0001361,53.2172,72.809,91.9318,268.183,0.00028034,4.178e-05,0.0,0 STARLINK-4136,1 53260U 22086U   23309.59077638  .00004178  00000-0  28034-3 0  9996,2 53260  53.2172  72.8090 0001361  91.9318 268.1830 15.08848868 71974,6917.853,95.437,540.66,538.777,0.0
53260.0,STARLINK-4136,PAYLOAD,2023-11-05 15:46:05,15.08859633,0.0001498,53.2166,72.512,89.1476,270.9688,0.00054374,8.381e-05,0.0,0 STARLINK-4136,1 53260U 22086U   23309.65701331  .00008381  00000-0  54374-3 0  9993,2 53260  53.2166  72.5120 0001498  89.1476 270.9688 15.08859633 71809,6917.82,95.436,540.722,538.649,0.0
53260.0,STARLINK-4136,PAYLOAD,2023-11-06 12:26:08,15.08810529,0.000265,53.2165,68.648,43.0755,317.0444,-0.00066142,-0.00010792,0.0,0 STARLINK-4136,1 53260U 22086U   23310.51814887 -.00010792  00000-0 -66142-3 0  9998,2 53260  53.2165  68.6480 0002650  43.0755 317.0444 15.08810529 71931,6917.97,95.439,541.669,538.002,0.0
53260.0,STARLINK-4136,PAYLOAD,2023-11-06 14:01:31,15.08797482,0.000183,53.2169,68.3489,48.3607,311.7542,-0.0012708,-0.00020433,0.0,0 STARLINK-4136,1 53260U 22086U   23310.58438754 -.00020433  00000-0 -12708-2 0  9991,2 53260  53.2169  68.3489 0001830  48.3607 311.7542 15.08797482 72128,6918.01,95.44,541.141,538.609,0.0
53260.0,STARLINK-4136,PAYLOAD,2023-11-06 15:36:54,15.08797283,0.0001641,53.2167,68.0514,56.7484,303.3665,-0.0012109,-0.00019485,0.0,0 STARLINK-4136,1 53260U 22086U   23310.65062862 -.00019485  00000-0 -12109-2 0  9992,2 53260  53.2167  68.0514 0001641  56.7484 303.3665 15.08797283 72131,6918.011,95.44,541.011,538.741,0.0
53260.0,STARLINK-4136,PAYLOAD,2023-11-07 07:30:47,15.08801219,0.0001097,53.2161,65.0769,76.5275,283.5839,0.0020083,0.00031785,0.0,0 STARLINK-4136,1 53260U 22086U   23311.31304664  .00031785  00000-0  20083-2 0  9990,2 53260  53.2161  65.0769 0001097  76.5275 283.5839 15.08801219 72055,6917.999,95.44,540.623,539.105,0.0
53260.0,STARLINK-4136,PAYLOAD,2023-11-07 13:52:20,15.08822874,0.0001185,53.2155,63.8887,70.816,289.296,0.0019738,0.0003125,0.0,0 STARLINK-4136,1 53260U 22086U   23311.57800973  .00031250  00000-0  19738-2 0  9994,2 53260  53.2155  63.8887 0001185  70.8160 289.2960 15.08822874 72275,6917.933,95.439,540.618,538.978,0.0
53260.0,STARLINK-4136,PAYLOAD,2023-11-08 12:07:43,15.08873865,0.0001381,53.2163,59.7265,63.1115,297.0018,0.0017582,0.00027831,0.0,0 STARLINK-4136,1 53260U 22086U   23312.50536326  .00027831  00000-0  17582-2 0  9991,2 53260  53.2163  59.7265 0001381  63.1115 297.0018 15.08873865 72234,6917.777,95.435,540.597,538.687,0.0
53260.0,STARLINK-4136,PAYLOAD,2023-11-08 13:43:06,15.08876848,0.0001374,53.2161,59.4288,64.9574,295.1561,0.0016715,0.00026441,0.0,0 STARLINK-4136,1 53260U 22086U   23312.57160138  .00026441  00000-0  16715-2 0  9995,2 53260  53.2161  59.4288 0001374  64.9574 295.1561 15.08876848 72421,6917.768,95.435,540.583,538.682,0.0
53260.0,STARLINK-4136,PAYLOAD,2023-11-09 00:50:47,15.08877644,0.0001479,53.217,57.3479,64.4248,295.6897,0.0012457,0.00019613,0.0,0 STARLINK-4136,1 53260U 22086U   23313.03527410  .00019613  00000-0  12457-2 0  9999,2 53260  53.2170  57.3479 0001479  64.4248 295.6897 15.08877644 72319,6917.765,95.435,540.653,538.607,0.0
53260.0,STARLINK-4136,PAYLOAD,2023-11-09 11:58:29,15.08858805,0.0001293,53.2176,55.2667,72.9299,287.1835,0.0014691,0.00023182,0.0,0 STARLINK-4136,1 53260U 22086U   23313.49895190  .00023182  00000-0  14691-2 0  9990,2 53260  53.2176  55.2667 0001293  72.9299 287.1835 15.08858805 72388,6917.823,95.436,540.582,538.793,0.0
53260.0,STARLINK-4136,PAYLOAD,2023-11-09 13:33:52,15.08859945,0.0001284,53.218,54.9687,78.6745,281.4392,0.0016545,0.00026156,0.0,0 STARLINK-4136,1 53260U 22086U   23313.56519099  .00026156  00000-0  16545-2 0  9993,2 53260  53.2180  54.9687 0001284  78.6745 281.4392 15.08859945 72572,6917.819,95.436,540.573,538.796,0.0
53260.0,STARLINK-4136,PAYLOAD,2023-11-10 11:49:16,15.08843822,0.0001332,53.2177,50.804,96.0748,264.0396,0.0012767,0.00020091,0.0,0 STARLINK-4136,1 53260U 22086U   23314.49255219  .00020091  00000-0  12767-2 0  9991,2 53260  53.2177  50.8040 0001332  96.0748 264.0396 15.08843822 72531,6917.869,95.437,540.655,538.812,0.0
53260.0,STARLINK-4136,PAYLOAD,2023-11-10 13:24:39,15.08845856,0.0001327,53.2178,50.5073,83.8791,276.2352,0.0015105,0.00023837,0.0,0 STARLINK-4136,1 53260U 22086U   23314.55879261  .00023837  00000-0  15105-2 0  9997,2 53260  53.2178  50.5073 0001327  83.8791 276.2352 15.08845856 72728,6917.862,95.437,540.645,538.809,0.0
53260.0,STARLINK-4136,PAYLOAD,2023-11-10 22:56:58,15.08843911,0.0001276,53.2182,48.7236,80.8775,279.2361,0.00054322,8.369e-05,0.0,0 STARLINK-4136,1 53260U 22086U   23314.95623284  .00008369  00000-0  54322-3 0  9991,2 53260  53.2182  48.7236 0001276  80.8775 279.2361 15.08843911 72605,6917.868,95.437,540.616,538.851,0.0
53260.0,STARLINK-4136,PAYLOAD,2023-11-11 13:15:26,15.08850229,0.0001263,53.2174,46.049,83.1961,276.9175,0.00026833,3.986e-05,0.0,0 STARLINK-4136,1 53260U 22086U   23315.55239077  .00003986  00000-0  26833-3 0  9997,2 53260  53.2174  46.0490 0001263  83.1961 276.9175 15.08850229 72874,6917.849,95.437,540.588,538.84,0.0
53260.0,STARLINK-4136,PAYLOAD,2023-11-11 22:47:45,15.08847557,0.0001383,53.218,44.2655,82.3025,277.8125,0.0002276,3.337e-05,0.0,0 STARLINK-4136,1 53260U 22086U   23315.94982879  .00003337  00000-0  22760-3 0  9990,2 53260  53.2180  44.2655 0001383  82.3025 277.8125 15.08847557 72751,6917.857,95.437,540.679,538.766,0.0
53260.0,STARLINK-4136,PAYLOAD,2023-11-12 11:30:50,15.08837724,0.0001373,53.2172,41.8857,82.0689,278.0459,2.6682e-05,1.37e-06,0.0,0 STARLINK-4136,1 53260U 22086U   23316.47975350  .00000137  00000-0  26682-4 0  9998,2 53260  53.2172  41.8857 0001373  82.0689 278.0459 15.08837724 72838,6917.887,95.438,540.702,538.803,0.0
53260.0,STARLINK-4136,PAYLOAD,2023-11-12 13:06:13,15.08841156,0.0001384,53.2169,41.5889,84.942,275.173,0.00011114,1.481e-05,0.0,0 STARLINK-4136,1 53260U 22086U   23316.54599275  .00001481  00000-0  11114-3 0  9990,2 53260  53.2169  41.5889 0001384  84.9420 275.1730 15.08841156 73028,6917.877,95.437,540.699,538.784,0.0
53260.0,STARLINK-4136,PAYLOAD,2023-11-13 11:21:37,15.08856996,0.0001353,53.2169,37.4258,79.196,280.9184,0.00065238,0.00010115,0.0,0 STARLINK-4136,1 53260U 22086U   23317.47334716  .00010115  00000-0  65238-3 0  9990,2 53260  53.2169  37.4258 0001353  79.1960 280.9184 15.08856996 72982,6917.828,95.436,540.629,538.757,0.0
53260.0,STARLINK-4136,PAYLOAD,2023-11-13 12:57:00,15.08858686,0.0001358,53.2169,37.1285,78.4636,281.6508,0.00070346,0.00010931,0.0,0 STARLINK-4136,1 53260U 22086U   23317.53958654  .00010931  00000-0  70346-3 0  9992,2 53260  53.2169  37.1285 0001358  78.4636 281.6508 15.08858686 73174,6917.823,95.436,540.628,538.749,0.0
53260.0,STARLINK-4136,PAYLOAD,2023-11-14 00:04:41,15.08846258,0.0001424,53.2188,35.044,131.9483,228.1631,-1.0381e-05,-4.53e-06,0.0,0 STARLINK-4136,1 53260U 22086U   23318.00326384 -.00000453  00000-0 -10381-4 0  9998,2 53260  53.2188  35.0440 0001424 131.9483 228.1631 15.08846258 73067,6917.861,95.437,540.711,538.741,0.0
53260.0,STARLINK-4136,PAYLOAD,2023-11-14 11:12:24,15.08835239,0.0001469,53.2167,32.9653,92.1131,268.0029,-5.7612e-05,-1.205e-05,0.0,0 STARLINK-4136,1 53260U 22086U   23318.46694938 -.00001205  00000-0 -57612-4 0  9995,2 53260  53.2167  32.9653 0001469  92.1131 268.0029 15.08835239 73132,6917.895,95.438,540.776,538.744,0.0
53260.0,STARLINK-4136,PAYLOAD,2023-11-14 12:47:47,15.08837193,0.0001428,53.2167,32.6681,86.2035,273.9121,0.00011789,1.589e-05,0.0,0 STARLINK-4136,1 53260U 22086U   23318.53318975  .00001589  00000-0  11789-3 0  9994,2 53260  53.2167  32.6681 0001428  86.2035 273.9121 15.08837193 73322,6917.889,95.438,540.742,538.766,0.0
53260.0,STARLINK-4136,PAYLOAD,2023-11-14 22:20:06,15.08834811,0.0001551,53.2167,30.8851,78.3617,281.7549,0.00049915,7.664e-05,0.0,0 STARLINK-4136,1 53260U 22086U   23318.93063456  .00007664  00000-0  49915-3 0  9991,2 53260  53.2167  30.8851 0001551  78.3617 281.7549 15.08834811 73387,6917.896,95.438,540.834,538.688,0.0
